[{"OBJECT_NAME":"BRO-11","OBJECT_ID":"2023-174J","EPOCH":"2026-03-09T23:01:09.890400","MEAN_MOTION":15.26267731,"ECCENTRICITY":0.00104518,"INCLINATION":97.3961,"RA_OF_ASC_NODE":146.7679,"ARG_OF_PERICENTER":189.9892,"MEAN_ANOMALY":170.1141,"EPHEMERIS_TYPE":0,"CLASSIFICATION_TYPE":"U","NORAD_CAT_ID":58264,"ELEMENT_SET_NO":999,"REV_AT_EPOCH":12961,"BSTAR":0.00032296323,"MEAN_MOTION_DOT":8.313e-5,"MEAN_MOTION_DDOT":0},{"OBJECT_NAME":"STARLINK-32928","OBJECT_ID":"2025-075S","EPOCH":"2026-03-09T21:49:10.229088","MEAN_MOTION":15.27605346,"ECCENTRICITY":0.00021424,"INCLINATION":43.0003,"RA_OF_ASC_NODE":269.1595,"ARG_OF_PERICENTER":255.3172,"MEAN_ANOMALY":104.7443,"EPHEMERIS_TYPE":0,"CLASSIFICATION_TYPE":"U","NORAD_CAT_ID":63564,"ELEMENT_SET_NO":999,"REV_AT_EPOCH":5197,"BSTAR":0.0011865793,"MEAN_MOTION_DOT":0.0003256,"MEAN_MOTION_DDOT":0}]
